SL-14 R/B               
1 16496U 86006B   26083.19164194  .00000830  00000+0  85613-4 0  9997
2 16496  82.5243 246.0846 0075470 223.8374 135.6839 14.86835905151364
COSMOS 1743             
1 16719U 86034A   26082.95466962  .00042683  00000+0  53262-3 0  9993
2 16719  82.5304  58.8454 0003235 187.8112 172.3095 15.59683616182472
SL-14 R/B               
1 16792U 86046B   26083.22125014  .00000491  00000+0  53651-4 0  9992
2 16792  82.4795  66.4471 0023142 176.0799 184.0603 14.85603692128569
SL-14 R/B               
1 16882U 86055B   26083.14896288  .00000425  00000+0  46149-4 0  9992
2 16882  82.5176 113.0808 0017364 285.6554 135.7863 14.85654873121517
AJISAI (EGS)            
1 16908U 86061A   26083.26869831 -.00000105  00000+0 -53730-4 0  9996
2 16908  50.0102  48.5154 0011317 324.6236 183.8345 12.44515647469819
SL-14 R/B               
1 17567U 87024B   26083.24935041  .00000483  00000+0  52233-4 0  9997
2 17567  82.5248  79.0747 0017409 208.1472 151.8806 14.86145281 90295
COSMOS 1833             
1 17589U 87027A   26083.30138755 -.00000276  00000+0 -12176-3 0  9991
2 17589  70.9181 295.3080 0023500 193.2544 166.7963 14.13049617 12381
SL-16 R/B               
1 17590U 87027B   26083.30326315 -.00000175  00000+0 -63143-4 0  9993
2 17590  70.9995 245.6976 0002917 107.9001 252.2442 14.17166113 17414
SL-14 R/B               
1 17912U 87038B   26083.25180348  .00000434  00000+0  47435-4 0  9993
2 17912  82.4979 283.0863 0020635 114.6992 245.6376 14.85381567 81391
COSMOS 1844             
1 17973U 87041A   26083.17960160  .00000259  00000+0  15925-3 0  9996
2 17973  70.9013   3.6134 0030752 356.7925   3.2994 14.14553198  5632
SL-14 R/B               
1 18153U 87055B   26083.15875279  .00000461  00000+0  50292-4 0  9998
2 18153  82.5015 335.3975 0019860 329.6774  30.3292 14.85643781 72081
COSMOS 1867             
1 18187U 87060A   26083.25190821 -.00000041  00000+0  22210-4 0  9999
2 18187  65.0090 265.9221 0014719 279.5461  80.3959 14.31505141 22025
SL-14 R/B               
1 18749U 88001B   26083.22246382  .00000533  00000+0  58737-4 0  9998
2 18749  82.5163 181.6958 0017929 185.5695 174.5325 14.85543630 44184
COSMOS 1933             
1 18958U 88020A   26083.15978244  .00005035  00000+0  24537-3 0  9994
2 18958  82.5122 236.5911 0005027 138.1723 221.9896 15.18117013 52427
SL-3 R/B                
1 19046U 88032B   26083.21558844  .00004871  00000+0  22702-3 0  9992
2 19046  97.5215  66.4188 0025822 179.1759 180.9523 15.20065850 54315
SL-16 R/B               
1 19120U 88039B   26083.21375214 -.00000012  00000+0  17069-4 0  9995
2 19120  71.0159  37.8346 0023456 313.4389  46.4784 14.19617815960449
COSMOS 1953             
1 19210U 88050A   26083.22310559  .00006758  00000+0  24013-3 0  9998
2 19210  82.5081 143.6290 0012524  77.1818 283.0820 15.28753389 40008
