[{"OBJECT_NAME":"SL-14 R/B","OBJECT_ID":"1986-006B","EPOCH":"2026-03-24T04:35:57.863616","MEAN_MOTION":14.86835905,"ECCENTRICITY":0.00754708,"INCLINATION":82.5243,"RA_OF_ASC_NODE":246.0846,"ARG_OF_PERICENTER":223.8374,"MEAN_ANOMALY":135.6839,"EPHEMERIS_TYPE":0,"CLASSIFICATION_TYPE":"U","NORAD_CAT_ID":16496,"ELEMENT_SET_NO":999,"REV_AT_EPOCH":15136,"BSTAR":8.5613046e-5,"MEAN_MOTION_DOT":8.3e-6,"MEAN_MOTION_DDOT":0},{"OBJECT_NAME":"COSMOS 1743","OBJECT_ID":"1986-034A","EPOCH":"2026-03-23T22:54:43.455168","MEAN_MOTION":15.59683616,"ECCENTRICITY":0.00032357,"INCLINATION":82.5304,"RA_OF_ASC_NODE":58.8454,"ARG_OF_PERICENTER":187.8112,"MEAN_ANOMALY":172.3095,"EPHEMERIS_TYPE":0,"CLASSIFICATION_TYPE":"U","NORAD_CAT_ID":16719,"ELEMENT_SET_NO":999,"REV_AT_EPOCH":18247,"BSTAR":0.00053261671,"MEAN_MOTION_DOT":0.00042683,"MEAN_MOTION_DDOT":0},{"OBJECT_NAME":"SL-14 R/B","OBJECT_ID":"1986-046B","EPOCH":"2026-03-24T05:18:36.012096","MEAN_MOTION":14.85603692,"ECCENTRICITY":0.00231429,"INCLINATION":82.4795,"RA_OF_ASC_NODE":66.4471,"ARG_OF_PERICENTER":176.0799,"MEAN_ANOMALY":184.0603,"EPHEMERIS_TYPE":0,"CLASSIFICATION_TYPE":"U","NORAD_CAT_ID":16792,"ELEMENT_SET_NO":999,"REV_AT_EPOCH":12856,"BSTAR":5.3651281e-5,"MEAN_MOTION_DOT":4.91e-6,"MEAN_MOTION_DDOT":0},{"OBJECT_NAME":"SL-14 R/B","OBJECT_ID":"1986-055B","EPOCH":"2026-03-24T03:34:30.392832","MEAN_MOTION":14.85654873,"ECCENTRICITY":0.00173648,"INCLINATION":82.5176,"RA_OF_ASC_NODE":113.0808,"ARG_OF_PERICENTER":285.6554,"MEAN_ANOMALY":135.7863,"EPHEMERIS_TYPE":0,"CLASSIFICATION_TYPE":"U","NORAD_CAT_ID":16882,"ELEMENT_SET_NO":999,"REV_AT_EPOCH":12151,"BSTAR":4.6148994e-5,"MEAN_MOTION_DOT":4.25e-6,"MEAN_MOTION_DDOT":0},{"OBJECT_NAME":"AJISAI (EGS)","OBJECT_ID":"1986-061A","EPOCH":"2026-03-24T06:26:55.533984","MEAN_MOTION":12.44515647,"ECCENTRICITY":0.00113174,"INCLINATION":50.0102,"RA_OF_ASC_NODE":48.5154,"ARG_OF_PERICENTER":324.6236,"MEAN_ANOMALY":183.8345,"EPHEMERIS_TYPE":0,"CLASSIFICATION_TYPE":"U","NORAD_CAT_ID":16908,"ELEMENT_SET_NO":999,"REV_AT_EPOCH":46981,"BSTAR":-5.3730251e-5,"MEAN_MOTION_DOT":-1.05e-6,"MEAN_MOTION_DDOT":0},{"OBJECT_NAME":"SL-14 R/B","OBJECT_ID":"1987-024B","EPOCH":"2026-03-24T05:59:03.875424","MEAN_MOTION":14.86145281,"ECCENTRICITY":0.00174091,"INCLINATION":82.5248,"RA_OF_ASC_NODE":79.0747,"ARG_OF_PERICENTER":208.1472,"MEAN_ANOMALY":151.8806,"EPHEMERIS_TYPE":0,"CLASSIFICATION_TYPE":"U","NORAD_CAT_ID":17567,"ELEMENT_SET_NO":999,"REV_AT_EPOCH":9029,"BSTAR":5.2232633e-5,"MEAN_MOTION_DOT":4.83e-6,"MEAN_MOTION_DDOT":0},{"OBJECT_NAME":"COSMOS 1833","OBJECT_ID":"1987-027A","EPOCH":"2026-03-24T07:13:59.884320","MEAN_MOTION":14.13049617,"ECCENTRICITY":0.00235009,"INCLINATION":70.9181,"RA_OF_ASC_NODE":295.308,"ARG_OF_PERICENTER":193.2544,"MEAN_ANOMALY":166.7963,"EPHEMERIS_TYPE":0,"CLASSIFICATION_TYPE":"U","NORAD_CAT_ID":17589,"ELEMENT_SET_NO":999,"REV_AT_EPOCH":1238,"BSTAR":-0.00012175659,"MEAN_MOTION_DOT":-2.76e-6,"MEAN_MOTION_DDOT":0},{"OBJECT_NAME":"SL-16 R/B","OBJECT_ID":"1987-027B","EPOCH":"2026-03-24T07:16:41.936160","MEAN_MOTION":14.17166113,"ECCENTRICITY":0.00029174,"INCLINATION":70.9995,"RA_OF_ASC_NODE":245.6976,"ARG_OF_PERICENTER":107.9001,"MEAN_ANOMALY":252.2442,"EPHEMERIS_TYPE":0,"CLASSIFICATION_TYPE":"U","NORAD_CAT_ID":17590,"ELEMENT_SET_NO":999,"REV_AT_EPOCH":1741,"BSTAR":-6.314264e-5,"MEAN_MOTION_DOT":-1.75e-6,"MEAN_MOTION_DDOT":0},{"OBJECT_NAME":"SL-14 R/B","OBJECT_ID":"1987-038B","EPOCH":"2026-03-24T06:02:35.820672","MEAN_MOTION":14.85381567,"ECCENTRICITY":0.0020635,"INCLINATION":82.4979,"RA_OF_ASC_NODE":283.0863,"ARG_OF_PERICENTER":114.6992,"MEAN_ANOMALY":245.6376,"EPHEMERIS_TYPE":0,"CLASSIFICATION_TYPE":"U","NORAD_CAT_ID":17912,"ELEMENT_SET_NO":999,"REV_AT_EPOCH":8139,"BSTAR":4.7434854e-5,"MEAN_MOTION_DOT":4.34e-6,"MEAN_MOTION_DDOT":0},{"OBJECT_NAME":"COSMOS 1844","OBJECT_ID":"1987-041A","EPOCH":"2026-03-24T04:18:37.578240","MEAN_MOTION":14.14553198,"ECCENTRICITY":0.00307522,"INCLINATION":70.9013,"RA_OF_ASC_NODE":3.6134,"ARG_OF_PERICENTER":356.7925,"MEAN_ANOMALY":3.2994,"EPHEMERIS_TYPE":0,"CLASSIFICATION_TYPE":"U","NORAD_CAT_ID":17973,"ELEMENT_SET_NO":999,"REV_AT_EPOCH":563,"BSTAR":0.0001592492,"MEAN_MOTION_DOT":2.59e-6,"MEAN_MOTION_DDOT":0},{"OBJECT_NAME":"SL-14 R/B","OBJECT_ID":"1987-055B","EPOCH":"2026-03-24T03:48:36.241056","MEAN_MOTION":14.85643781,"ECCENTRICITY":0.00198607,"INCLINATION":82.5015,"RA_OF_ASC_NODE":335.3975,"ARG_OF_PERICENTER":329.6774,"MEAN_ANOMALY":30.3292,"EPHEMERIS_TYPE":0,"CLASSIFICATION_TYPE":"U","NORAD_CAT_ID":18153,"ELEMENT_SET_NO":999,"REV_AT_EPOCH":7208,"BSTAR":5.0291712e-5,"MEAN_MOTION_DOT":4.61e-6,"MEAN_MOTION_DDOT":0},{"OBJECT_NAME":"COSMOS 1867","OBJECT_ID":"1987-060A","EPOCH":"2026-03-24T06:02:44.869344","MEAN_MOTION":14.31505141,"ECCENTRICITY":0.00147192,"INCLINATION":65.009,"RA_OF_ASC_NODE":265.9221,"ARG_OF_PERICENTER":279.5461,"MEAN_ANOMALY":80.3959,"EPHEMERIS_TYPE":0,"CLASSIFICATION_TYPE":"U","NORAD_CAT_ID":18187,"ELEMENT_SET_NO":999,"REV_AT_EPOCH":2202,"BSTAR":2.2209873e-5,"MEAN_MOTION_DOT":-4.1e-7,"MEAN_MOTION_DDOT":0},{"OBJECT_NAME":"SL-14 R/B","OBJECT_ID":"1988-001B","EPOCH":"2026-03-24T05:20:20.874048","MEAN_MOTION":14.8554363,"ECCENTRICITY":0.00179292,"INCLINATION":82.5163,"RA_OF_ASC_NODE":181.6958,"ARG_OF_PERICENTER":185.5695,"MEAN_ANOMALY":174.5325,"EPHEMERIS_TYPE":0,"CLASSIFICATION_TYPE":"U","NORAD_CAT_ID":18749,"ELEMENT_SET_NO":999,"REV_AT_EPOCH":4418,"BSTAR":5.8737252e-5,"MEAN_MOTION_DOT":5.33e-6,"MEAN_MOTION_DDOT":0},{"OBJECT_NAME":"COSMOS 1933","OBJECT_ID":"1988-020A","EPOCH":"2026-03-24T03:50:05.202816","MEAN_MOTION":15.18117013,"ECCENTRICITY":0.00050272,"INCLINATION":82.5122,"RA_OF_ASC_NODE":236.5911,"ARG_OF_PERICENTER":138.1723,"MEAN_ANOMALY":221.9896,"EPHEMERIS_TYPE":0,"CLASSIFICATION_TYPE":"U","NORAD_CAT_ID":18958,"ELEMENT_SET_NO":999,"REV_AT_EPOCH":5242,"BSTAR":0.00024536777,"MEAN_MOTION_DOT":5.035e-5,"MEAN_MOTION_DDOT":0},{"OBJECT_NAME":"SL-3 R/B","OBJECT_ID":"1988-032B","EPOCH":"2026-03-24T05:10:26.841216","MEAN_MOTION":15.2006585,"ECCENTRICITY":0.00258225,"INCLINATION":97.5215,"RA_OF_ASC_NODE":66.4188,"ARG_OF_PERICENTER":179.1759,"MEAN_ANOMALY":180.9523,"EPHEMERIS_TYPE":0,"CLASSIFICATION_TYPE":"U","NORAD_CAT_ID":19046,"ELEMENT_SET_NO":999,"REV_AT_EPOCH":5431,"BSTAR":0.00022702108,"MEAN_MOTION_DOT":4.871e-5,"MEAN_MOTION_DDOT":0},{"OBJECT_NAME":"SL-16 R/B","OBJECT_ID":"1988-039B","EPOCH":"2026-03-24T05:07:48.184896","MEAN_MOTION":14.19617815,"ECCENTRICITY":0.00234567,"INCLINATION":71.0159,"RA_OF_ASC_NODE":37.8346,"ARG_OF_PERICENTER":313.4389,"MEAN_ANOMALY":46.4784,"EPHEMERIS_TYPE":0,"CLASSIFICATION_TYPE":"U","NORAD_CAT_ID":19120,"ELEMENT_SET_NO":999,"REV_AT_EPOCH":96044,"BSTAR":1.7068891e-5,"MEAN_MOTION_DOT":-1.2e-7,"MEAN_MOTION_DDOT":0},{"OBJECT_NAME":"COSMOS 1953","OBJECT_ID":"1988-050A","EPOCH":"2026-03-24T05:21:16.322976","MEAN_MOTION":15.28753389,"ECCENTRICITY":0.00125248,"INCLINATION":82.5081,"RA_OF_ASC_NODE":143.629,"ARG_OF_PERICENTER":77.1818,"MEAN_ANOMALY":283.082,"EPHEMERIS_TYPE":0,"CLASSIFICATION_TYPE":"U","NORAD_CAT_ID":19210,"ELEMENT_SET_NO":999,"REV_AT_EPOCH":4000,"BSTAR":0.00024012654,"MEAN_MOTION_DOT":6.758e-5,"MEAN_MOTION_DDOT":0}]
